H1 CPF  1  DGF 2022 06 21 05  6721 larets     NONE      
H2   304206 5557    27944 2022 06 14 00 00 00 2022 06 21 00 00 00    30 1 1  0 0 0
H5  0.0650
H9
10 0 59748  68400.000000  0      -1210961.735        549846.013      -6933994.071
10 0 59748  68430.000000  0      -1269193.624        767483.236      -6902824.307
10 0 59748  68460.000000  0      -1325193.347        984595.773      -6864635.907
10 0 59748  68490.000000  0      -1378907.085       1200954.547      -6819467.195
10 0 59748  68520.000000  0      -1430284.308       1416330.966      -6767363.523
10 0 59748  68550.000000  0      -1479277.818       1630497.162      -6708377.239
10 0 59748  68580.000000  0      -1525843.797       1843226.232      -6642567.639
10 0 59748  68610.000000  0      -1569941.841       2054292.472      -6570000.915
10 0 59748  68640.000000  0      -1611535.000       2263471.627      -6490750.097
10 0 59748  68670.000000  0      -1650589.810       2470541.121      -6404894.987
10 0 59748  68700.000000  0      -1687076.319       2675280.304      -6312522.081
10 0 59748  68730.000000  0      -1720968.110       2877470.683      -6213724.485
10 0 59748  68760.000000  0      -1752242.315       3076896.156      -6108601.833
10 0 59748  68790.000000  0      -1780879.632       3273343.241      -5997260.189
10 0 59748  68820.000000  0      -1806864.330       3466601.312      -5879811.952
10 0 59748  68850.000000  0      -1830184.257       3656462.825      -5756375.752
10 0 59748  68880.000000  0      -1850830.842       3842723.548      -5627076.336
10 0 59748  68910.000000  0      -1868799.086       4025182.785      -5492044.449
10 0 59748  68940.000000  0      -1884087.563       4203643.599      -5351416.709
10 0 59748  68970.000000  0      -1896698.397       4377913.029      -5205335.474
10 0 59748  69000.000000  0      -1906637.253       4547802.308      -5053948.705
10 0 59748  69030.000000  0      -1913913.312       4713127.073      -4897409.818
10 0 59748  69060.000000  0      -1918539.243       4873707.570      -4735877.534
10 0 59748  69090.000000  0      -1920531.176       5029368.860      -4569515.722
10 0 59748  69120.000000  0      -1919908.663       5179941.013      -4398493.238
10 0 59748  69150.000000  0      -1916694.641       5325259.303      -4222983.756
10 0 59748  69180.000000  0      -1910915.387       5465164.396      -4043165.595
10 0 59748  69210.000000  0      -1902600.470       5599502.528      -3859221.542
10 0 59748  69240.000000  0      -1891782.696       5728125.689      -3671338.664
10 0 59748  69270.000000  0      -1878498.052       5850891.788      -3479708.131
10 0 59748  69300.000000  0      -1862785.646       5967664.824      -3284525.011
10 0 59748  69330.000000  0      -1844687.643       6078315.040      -3085988.083
10 0 59748  69360.000000  0      -1824249.198       6182719.085      -2884299.628
10 0 59748  69390.000000  0      -1801518.381       6280760.155      -2679665.223
10 0 59748  69420.000000  0      -1776546.103       6372328.137      -2472293.527
10 0 59748  69450.000000  0      -1749386.035       6457319.739      -2262396.069
10 0 59748  69480.000000  0      -1720094.524       6535638.609      -2050187.019
10 0 59748  69510.000000  0      -1688730.508       6607195.456      -1835882.976
10 0 59748  69540.000000  0      -1655355.418       6671908.151      -1619702.737
10 0 59748  69570.000000  0      -1620033.094       6729701.828      -1401867.078
10 0 59748  69600.000000  0      -1582829.685       6780508.983      -1182598.521
10 0 59748  69630.000000  0      -1543813.549       6824269.558       -962121.103
10 0 59748  69660.000000  0      -1503055.152       6860931.015       -740660.138
10 0 59748  69690.000000  0      -1460626.959       6890448.407       -518441.981
10 0 59748  69720.000000  0      -1416603.329       6912784.434       -295693.792
10 0 59748  69750.000000  0      -1371060.405       6927909.500        -72643.293
10 0 59748  69780.000000  0      -1324075.996       6935801.747        150481.475
10 0 59748  69810.000000  0      -1275729.470       6936447.093        373452.397
10 0 59748  69840.000000  0      -1226101.632       6929839.243        596041.526
10 0 59748  69870.000000  0      -1175274.612       6915979.706        818021.325
10 0 59748  69900.000000  0      -1123331.740       6894877.789       1039164.913
10 0 59748  69930.000000  0      -1070357.428       6866550.592       1259246.296
10 0 59748  69960.000000  0      -1016437.048       6831022.988       1478040.612
10 0 59748  69990.000000  0       -961656.806       6788327.595       1695324.363
10 0 59748  70020.000000  0       -906103.622       6738504.740       1910875.647
10 0 59748  70050.000000  0       -849865.002       6681602.418       2124474.390
10 0 59748  70080.000000  0       -793028.918       6617676.236       2335902.573
10 0 59748  70110.000000  0       -735683.683       6546789.356       2544944.459
10 0 59748  70140.000000  0       -677917.826       6469012.428       2751386.816
10 0 59748  70170.000000  0       -619819.967       6384423.506       2955019.143
10 0 59748  70200.000000  0       -561478.694       6293107.963       3155633.880
10 0 59748  70230.000000  0       -502982.439       6195158.394       3353026.623
10 0 59748  70260.000000  0       -444419.359       6090674.521       3546996.326
10 0 59748  70290.000000  0       -385877.215       5979763.086       3737345.510
10 0 59748  70320.000000  0       -327443.255       5862537.743       3923880.475
10 0 59748  70350.000000  0       -269204.087       5739118.921       4106411.504
10 0 59748  70380.000000  0       -211245.568       5609633.691       4284753.057
10 0 59748  70410.000000  0       -153652.680       5474215.616       4458723.961
10 0 59748  70440.000000  0        -96509.419       5333004.593       4628147.585
10 0 59748  70470.000000  0        -39898.675       5186146.700       4792852.014
10 0 59748  70500.000000  0         16097.871       5033794.028       4952670.206
10 0 59748  70530.000000  0         71399.863       4876104.528       5107440.152
10 0 59748  70560.000000  0        125928.369       4713241.842       5257005.039
10 0 59748  70590.000000  0        179605.987       4545375.130       5401213.402
10 0 59748  70620.000000  0        232356.950       4372678.887       5539919.280
10 0 59748  70650.000000  0        284107.218       4195332.755       5672982.359
10 0 59748  70680.000000  0        334784.581       4013521.324       5800268.108
10 0 59748  70710.000000  0        384318.749       3827433.934       5921647.912
10 0 59748  70740.000000  0        432641.442       3637264.467       6036999.186
10 0 59748  70770.000000  0        479686.475       3443211.143       6146205.495
10 0 59748  70800.000000  0        525389.844       3245476.312       6249156.661
10 0 59748  70830.000000  0        569689.802       3044266.236       6345748.867
10 0 59748  70860.000000  0        612526.944       2839790.873       6435884.758
10 0 59748  70890.000000  0        653844.275       2632263.658       6519473.528
10 0 59748  70920.000000  0        693587.282       2421901.274       6596431.009
10 0 59748  70950.000000  0        731704.002       2208923.429       6666679.749
10 0 59748  70980.000000  0        768145.086       1993552.615       6730149.085
10 0 59748  71010.000000  0        802863.854       1776013.886       6786775.200
10 0 59748  71040.000000  0        835816.359       1556534.614       6836501.189
10 0 59748  71070.000000  0        866961.430       1335344.258       6879277.103
10 0 59748  71100.000000  0        896260.728       1112674.125       6915059.996
10 0 59748  71130.000000  0        923678.788        888757.131       6943813.964
10 0 59748  71160.000000  0        949183.058        663827.566       6965510.178
10 0 59748  71190.000000  0        972743.942        438120.847       6980126.910
10 0 59748  71220.000000  0        994334.827        211873.279       6987649.558
10 0 59748  71250.000000  0       1013932.115        -14678.193       6988070.661
10 0 59748  71280.000000  0       1031515.247       -241296.232       6981389.905
10 0 59748  71310.000000  0       1047066.725       -467743.356       6967614.123
10 0 59748  71340.000000  0       1060572.128       -693782.186       6946757.286
10 0 59748  71370.000000  0       1072020.127       -919175.687       6918840.487
10 0 59748  71400.000000  0       1081402.495      -1143687.415       6883891.925
10 0 59748  71430.000000  0       1088714.109      -1367081.762       6841946.879
10 0 59748  71460.000000  0       1093952.950      -1589124.204       6793047.679
10 0 59748  71490.000000  0       1097120.103      -1809581.545       6737243.660
10 0 59748  71520.000000  0       1098219.751      -2028222.158       6674591.123
10 0 59748  71550.000000  0       1097259.162      -2244816.232       6605153.277
10 0 59748  71580.000000  0       1094248.674      -2459136.011       6529000.186
10 0 59748  71610.000000  0       1089201.677      -2670956.041       6446208.698
10 0 59748  71640.000000  0       1082134.584      -2880053.400       6356862.369
10 0 59748  71670.000000  0       1073066.807      -3086207.937       6261051.384
10 0 59748  71700.000000  0       1062020.722      -3289202.495       6158872.471
10 0 59748  71730.000000  0       1049021.638      -3488823.148       6050428.808
10 0 59748  71760.000000  0       1034097.759      -3684859.421       5935829.928
10 0 59748  71790.000000  0       1017280.142      -3877104.514       5815191.615
10 0 59748  71820.000000  0        998602.650      -4065355.526       5688635.792
10 0 59748  71850.000000  0        978101.901      -4249413.669       5556290.409
10 0 59748  71880.000000  0        955817.218      -4429084.478       5418289.320
10 0 59748  71910.000000  0        931790.568      -4604178.027       5274772.156
10 0 59748  71940.000000  0        906066.506      -4774509.132       5125884.194
10 0 59748  71970.000000  0        878692.108      -4939897.559       4971776.217
99
